{"type":"FeatureCollection","features":[{"type":"Feature","properties":{"codigo":"15001","nombre":"Tunja","departamento":"15"},"geometry":{"type":"Polygon","coordinates":[[[-73.3416,5.5846],[-73.3269,5.5796],[-73.3073,5.5697],[-73.3086,5.5437],[-73.3612,5.4743],[-73.4163,5.4483],[-73.4469,5.4693],[-73.4322,5.4854],[-73.4224,5.561],[-73.4114,5.5672],[-73.3416,5.5846]]]}},{"type":"Feature","properties":{"codigo":"15022","nombre":"Almeida","departamento":"15"},"geometry":{"type":"Polygon","coordinates":[[[-73.3649,5.0144],[-73.3759,4.9289],[-73.4371,4.9066],[-73.4395,4.9078],[-73.3771,5.0157],[-73.3649,5.0144]]]}},{"type":"Feature","properties":{"codigo":"15047","nombre":"Aquitania","departamento":"15"},"geometry":{"type":"Polygon","coordinates":[[[-72.7136,5.6255],[-72.6671,5.4359],[-72.7381,5.4706],[-72.8116,5.3776],[-72.8801,5.3503],[-72.8972,5.2599],[-72.9376,5.2041],[-73.0099,5.214],[-73.0417,5.3119],[-73.0429,5.3603],[-73.016,5.385],[-72.9254,5.5672],[-72.896,5.6131],[-72.8116,5.5846],[-72.7712,5.6441],[-72.7136,5.6255]]]}},{"type":"Feature","properties":{"codigo":"15051","nombre":"Arcabuco","departamento":"15"},"geometry":{"type":"Polygon","coordinates":[[[-73.4714,5.8213],[-73.382,5.7606],[-73.3636,5.6639],[-73.382,5.6726],[-73.4236,5.7073],[-73.5069,5.7247],[-73.5008,5.7792],[-73.4714,5.8213]]]}},{"type":"Feature","properties":{"codigo":"15087","nombre":"Belén","departamento":"15"},"geometry":{"type":"Polygon","coordinates":[[[-72.8128,6.0234],[-72.8177,5.9775],[-72.9144,5.9453],[-72.9695,6.0197],[-72.923,6.0977],[-72.8617,6.0135],[-72.8128,6.0234]]]}},{"type":"Feature","properties":{"codigo":"15090","nombre":"Berbeo","departamento":"15"},"geometry":{"type":"Polygon","coordinates":[[[-73.0723,5.1694],[-73.0894,5.1607],[-73.1482,5.2289],[-73.0637,5.3008],[-73.1017,5.2103],[-73.0723,5.1694]]]}},{"type":"Feature","properties":{"codigo":"15092","nombre":"Betéitiva","departamento":"15"},"geometry":{"type":"Polygon","coordinates":[[[-72.7797,5.954],[-72.8262,5.8784],[-72.8581,5.866],[-72.8728,5.8746],[-72.9254,5.9292],[-72.9144,5.9453],[-72.8177,5.9775],[-72.7797,5.954]]]}},{"type":"Feature","properties":{"codigo":"15097","nombre":"Boavita","departamento":"15"},"geometry":{"type":"Polygon","coordinates":[[[-72.6487,6.4361],[-72.623,6.4411],[-72.5753,6.3506],[-72.6353,6.2204],[-72.6414,6.2787],[-72.6549,6.3779],[-72.661,6.4436],[-72.6487,6.4361]]]}},{"type":"Feature","properties":{"codigo":"15104","nombre":"Boyacá","departamento":"15"},"geometry":{"type":"Polygon","coordinates":[[[-73.3343,5.4408],[-73.3526,5.4321],[-73.4261,5.4086],[-73.4408,5.4148],[-73.4163,5.4483],[-73.3612,5.4743],[-73.3343,5.4408]]]}},{"type":"Feature","properties":{"codigo":"15106","nombre":"Briceño","departamento":"15"},"geometry":{"type":"Polygon","coordinates":[[[-73.8802,5.7073],[-73.8864,5.69],[-73.8643,5.6379],[-73.8974,5.6193],[-73.9451,5.6937],[-73.8998,5.7371],[-73.8802,5.7073]]]}},{"type":"Feature","properties":{"codigo":"15109","nombre":"Buenavista","departamento":"15"},"geometry":{"type":"Polygon","coordinates":[[[-73.9108,5.5239],[-73.9023,5.4668],[-73.9476,5.4235],[-74.0149,5.478],[-73.9904,5.5251],[-73.9108,5.5499],[-73.9108,5.5239]]]}},{"type":"Feature","properties":{"codigo":"15114","nombre":"Busbanzá","departamento":"15"},"geometry":{"type":"Polygon","coordinates":[[[-72.8581,5.866],[-72.896,5.8127],[-72.8728,5.8746],[-72.8581,5.866]]]}},{"type":"Feature","properties":{"codigo":"15131","nombre":"Caldas","departamento":"15"},"geometry":{"type":"Polygon","coordinates":[[[-73.8643,5.6379],[-73.8484,5.5462],[-73.9108,5.5239],[-73.9108,5.5499],[-73.9255,5.5734],[-73.8974,5.6193],[-73.8643,5.6379]]]}},{"type":"Feature","properties":{"codigo":"15135","nombre":"Campohermoso","departamento":"15"},"geometry":{"type":"Polygon","coordinates":[[[-73.0295,4.9921],[-73.0613,4.9884],[-73.1751,4.8967],[-73.2229,4.9735],[-73.2486,5.069],[-73.1531,5.0752],[-73.1127,5.1124],[-73.0295,4.9921]]]}},{"type":"Feature","properties":{"codigo":"15162","nombre":"Cerinza","departamento":"15"},"geometry":{"type":"Polygon","coordinates":[[[-72.9144,5.9453],[-72.9254,5.9292],[-72.9279,5.9242],[-73.0111,5.9626],[-72.9695,6.0197],[-72.9144,5.9453]]]}},{"type":"Feature","properties":{"codigo":"15172","nombre":"Chinavita","departamento":"15"},"geometry":{"type":"Polygon","coordinates":[[[-73.3294,5.2611],[-73.2829,5.2066],[-73.2951,5.1979],[-73.2682,5.1557],[-73.3636,5.1372],[-73.3918,5.2165],[-73.4016,5.2425],[-73.3294,5.2611]]]}},{"type":"Feature","properties":{"codigo":"15176","nombre":"Chiquinquirá","departamento":"15"},"geometry":{"type":"Polygon","coordinates":[[[-73.6856,5.6292],[-73.7162,5.5908],[-73.7897,5.5524],[-73.8484,5.5462],[-73.8643,5.6379],[-73.8864,5.69],[-73.7799,5.6342],[-73.6856,5.6292]]]}},{"type":"Feature","properties":{"codigo":"15180","nombre":"Chiscas","departamento":"15"},"geometry":{"type":"Polygon","coordinates":[[[-72.2999,6.7162],[-72.3598,6.57],[-72.4211,6.5192],[-72.5018,6.539],[-72.5349,6.4956],[-72.5422,6.5836],[-72.4859,6.6567],[-72.4994,6.7286],[-72.4774,6.8427],[-72.3403,6.8464],[-72.2962,6.7856],[-72.2999,6.7162]]]}},{"type":"Feature","properties":{"codigo":"15183","nombre":"Chita","departamento":"15"},"geometry":{"type":"Polygon","coordinates":[[[-72.3966,6.2725],[-72.4125,6.1882],[-72.3623,6.0754],[-72.3207,6.0878],[-72.3427,6.0011],[-72.3403,5.892],[-72.4162,5.9044],[-72.4504,5.9577],[-72.5276,6.0097],[-72.5422,6.0692],[-72.5165,6.1486],[-72.552,6.1771],[-72.4957,6.2874],[-72.3966,6.2725]]]}},{"type":"Feature","properties":{"codigo":"15185","nombre":"Chitaraque","departamento":"15"},"geometry":{"type":"Polygon","coordinates":[[[-73.404,6.0556],[-73.371,6.006],[-73.4016,5.9019],[-73.4334,5.8982],[-73.4959,5.9874],[-73.4861,6.0011],[-73.4542,6.0791],[-73.404,6.0556]]]}},{"type":"Feature","properties":{"codigo":"15187","nombre":"Chivatá","departamento":"15"},"geometry":{"type":"Polygon","coordinates":[[[-73.2131,5.6267],[-73.2278,5.5536],[-73.2853,5.5239],[-73.3086,5.5437],[-73.3073,5.5697],[-73.2314,5.6267],[-73.2131,5.6267]]]}},{"type":"Feature","properties":{"codigo":"15189","nombre":"Ciénega","departamento":"15"},"geometry":{"type":"Polygon","coordinates":[[[-73.2216,5.4074],[-73.2853,5.3491],[-73.3147,5.4433],[-73.3147,5.4495],[-73.2216,5.4074]]]}},{"type":"Feature","properties":{"codigo":"15204","nombre":"Cómbita","departamento":"15"},"geometry":{"type":"Polygon","coordinates":[[[-73.2645,5.7036],[-73.2669,5.6639],[-73.3269,5.5796],[-73.3416,5.5846],[-73.3636,5.6639],[-73.382,5.7606],[-73.3575,5.8065],[-73.3012,5.7098],[-73.2645,5.7036]]]}},{"type":"Feature","properties":{"codigo":"15212","nombre":"Coper","departamento":"15"},"geometry":{"type":"Polygon","coordinates":[[[-73.9904,5.5251],[-74.0149,5.478],[-73.9476,5.4235],[-73.999,5.3677],[-74.0945,5.4359],[-74.0969,5.4706],[-74.0467,5.5003],[-73.9904,5.5251]]]}},{"type":"Feature","properties":{"codigo":"15215","nombre":"Corrales","departamento":"15"},"geometry":{"type":"Polygon","coordinates":[[[-72.7981,5.8536],[-72.8324,5.7978],[-72.8752,5.7705],[-72.896,5.7953],[-72.896,5.8127],[-72.8581,5.866],[-72.8262,5.8784],[-72.7981,5.8536]]]}},{"type":"Feature","properties":{"codigo":"15218","nombre":"Covarachía","departamento":"15"},"geometry":{"type":"Polygon","coordinates":[[[-72.743,6.5663],[-72.6793,6.4832],[-72.7381,6.4398],[-72.7357,6.4907],[-72.8116,6.5427],[-72.7699,6.5799],[-72.743,6.5663]]]}},{"type":"Feature","properties":{"codigo":"15223","nombre":"Cubará","departamento":"15"},"geometry":{"type":"Polygon","coordinates":[[[-72.0477,7.0385],[-71.9485,7.0112],[-71.9779,6.9654],[-72.0514,6.7683],[-72.1003,6.746],[-72.1419,6.7571],[-72.2999,6.7162],[-72.2962,6.7856],[-72.3403,6.8464],[-72.4774,6.8427],[-72.5031,6.9084],[-72.3929,6.8724],[-72.3133,6.9319],[-72.2901,6.9964],[-72.2203,6.9864],[-72.1995,7.041],[-72.0477,7.0385]]]}},{"type":"Feature","properties":{"codigo":"15224","nombre":"Cucaita","departamento":"15"},"geometry":{"type":"Polygon","coordinates":[[[-73.4224,5.561],[-73.4322,5.4854],[-73.491,5.5487],[-73.4224,5.561]]]}},{"type":"Feature","properties":{"codigo":"15226","nombre":"Cuítiva","departamento":"15"},"geometry":{"type":"Polygon","coordinates":[[[-72.896,5.6131],[-72.9254,5.5672],[-73.0037,5.5933],[-72.923,5.6205],[-72.896,5.6131]]]}},{"type":"Feature","properties":{"codigo":"15232","nombre":"Chíquiza","departamento":"15"},"geometry":{"type":"Polygon","coordinates":[[[-73.382,5.6726],[-73.4114,5.6168],[-73.4983,5.5598],[-73.5167,5.6007],[-73.4787,5.6776],[-73.4236,5.7073],[-73.382,5.6726]]]}},{"type":"Feature","properties":{"codigo":"15236","nombre":"Chivor","departamento":"15"},"geometry":{"type":"Polygon","coordinates":[[[-73.2988,4.9029],[-73.3404,4.7913],[-73.3722,4.8013],[-73.4016,4.8793],[-73.4469,4.8893],[-73.4371,4.9066],[-73.3759,4.9289],[-73.2988,4.9029]]]}},{"type":"Feature","properties":{"codigo":"15238","nombre":"Duitama","departamento":"15"},"geometry":{"type":"Polygon","coordinates":[[[-73.0307,6.0209],[-73.049,5.9775],[-72.9927,5.8052],[-73.0503,5.7742],[-73.1286,5.9329],[-73.1751,5.9949],[-73.0821,5.9775],[-73.0307,6.0209]]]}},{"type":"Feature","properties":{"codigo":"15244","nombre":"El Cocuy","departamento":"15"},"geometry":{"type":"Polygon","coordinates":[[[-72.3146,6.358],[-72.339,6.3456],[-72.3966,6.2725],[-72.4957,6.2874],[-72.5178,6.3494],[-72.4859,6.3903],[-72.4308,6.4398],[-72.3146,6.358]]]}},{"type":"Feature","properties":{"codigo":"15248","nombre":"El Espino","departamento":"15"},"geometry":{"type":"Polygon","coordinates":[[[-72.4211,6.5192],[-72.437,6.4944],[-72.4859,6.4646],[-72.5398,6.4882],[-72.5349,6.4956],[-72.5018,6.539],[-72.4211,6.5192]]]}},{"type":"Feature","properties":{"codigo":"15272","nombre":"Firavitoba","departamento":"15"},"geometry":{"type":"Polygon","coordinates":[[[-72.9474,5.7147],[-72.9634,5.6491],[-72.9989,5.6292],[-73.076,5.628],[-73.1029,5.659],[-73.0601,5.6875],[-73.0246,5.7247],[-72.9474,5.7147]]]}},{"type":"Feature","properties":{"codigo":"15276","nombre":"Floresta","departamento":"15"},"geometry":{"type":"Polygon","coordinates":[[[-72.8728,5.8746],[-72.896,5.8127],[-72.896,5.7953],[-72.9438,5.8065],[-72.9756,5.8585],[-72.9279,5.9242],[-72.9254,5.9292],[-72.8728,5.8746]]]}},{"type":"Feature","properties":{"codigo":"15293","nombre":"Gachantivá","departamento":"15"},"geometry":{"type":"Polygon","coordinates":[[[-73.5008,5.7792],[-73.5069,5.7247],[-73.5742,5.6924],[-73.5828,5.7904],[-73.5008,5.7792]]]}},{"type":"Feature","properties":{"codigo":"15296","nombre":"Gámeza","departamento":"15"},"geometry":{"type":"Polygon","coordinates":[[[-72.6316,5.8288],[-72.6255,5.7767],[-72.7969,5.7718],[-72.8324,5.7978],[-72.7981,5.8536],[-72.7491,5.8176],[-72.6316,5.8288]]]}},{"type":"Feature","properties":{"codigo":"15299","nombre":"Garagoa","departamento":"15"},"geometry":{"type":"Polygon","coordinates":[[[-73.2486,5.069],[-73.3649,5.0144],[-73.3771,5.0157],[-73.3881,5.0157],[-73.3943,5.0479],[-73.3845,5.0851],[-73.3636,5.1372],[-73.2682,5.1557],[-73.2486,5.069]]]}},{"type":"Feature","properties":{"codigo":"15317","nombre":"Guacamayas","departamento":"15"},"geometry":{"type":"Polygon","coordinates":[[[-72.4859,6.4646],[-72.497,6.4014],[-72.5484,6.4262],[-72.5484,6.4869],[-72.5398,6.4882],[-72.4859,6.4646]]]}},{"type":"Feature","properties":{"codigo":"15322","nombre":"Guateque","departamento":"15"},"geometry":{"type":"Polygon","coordinates":[[[-73.4738,5.0516],[-73.4469,4.9946],[-73.4665,4.9835],[-73.5069,4.9959],[-73.5228,5.0293],[-73.4799,5.0628],[-73.4799,5.0615],[-73.4738,5.0516]]]}},{"type":"Feature","properties":{"codigo":"15325","nombre":"Guayatá","departamento":"15"},"geometry":{"type":"Polygon","coordinates":[[[-73.4665,4.9835],[-73.4395,4.9078],[-73.4371,4.9066],[-73.4469,4.8893],[-73.5203,4.8793],[-73.5424,4.914],[-73.5069,4.9959],[-73.4665,4.9835]]]}},{"type":"Feature","properties":{"codigo":"15332","nombre":"Güicán de la Sierra","departamento":"15"},"geometry":{"type":"Polygon","coordinates":[[[-72.1003,6.746],[-72.0918,6.6481],[-72.1285,6.5241],[-72.2607,6.4423],[-72.3146,6.358],[-72.4308,6.4398],[-72.437,6.4944],[-72.4211,6.5192],[-72.3598,6.57],[-72.2999,6.7162],[-72.1419,6.7571],[-72.1003,6.746]]]}},{"type":"Feature","properties":{"codigo":"15362","nombre":"Iza","departamento":"15"},"geometry":{"type":"Polygon","coordinates":[[[-72.923,5.6205],[-73.0037,5.5933],[-72.9989,5.6292],[-72.9634,5.6491],[-72.923,5.6205]]]}},{"type":"Feature","properties":{"codigo":"15367","nombre":"Jenesano","departamento":"15"},"geometry":{"type":"Polygon","coordinates":[[[-73.3367,5.3144],[-73.4187,5.3714],[-73.4261,5.4086],[-73.3526,5.4321],[-73.3661,5.3652],[-73.3367,5.3144]]]}},{"type":"Feature","properties":{"codigo":"15368","nombre":"Jericó","departamento":"15"},"geometry":{"type":"Polygon","coordinates":[[[-72.552,6.1771],[-72.5165,6.1486],[-72.5422,6.0692],[-72.5655,6.1188],[-72.6561,6.1163],[-72.6353,6.1808],[-72.6328,6.2043],[-72.552,6.1771]]]}},{"type":"Feature","properties":{"codigo":"15377","nombre":"Labranzagrande","departamento":"15"},"geometry":{"type":"Polygon","coordinates":[[[-72.5141,5.6081],[-72.4443,5.5201],[-72.5018,5.4445],[-72.5839,5.3826],[-72.6671,5.4359],[-72.7136,5.6255],[-72.661,5.6664],[-72.6243,5.6292],[-72.5704,5.7098],[-72.5141,5.6081]]]}},{"type":"Feature","properties":{"codigo":"15380","nombre":"La Capilla","departamento":"15"},"geometry":{"type":"Polygon","coordinates":[[[-73.42,5.1223],[-73.4799,5.0615],[-73.4799,5.0628],[-73.4922,5.1285],[-73.4775,5.1483],[-73.4371,5.1595],[-73.42,5.1223]]]}},{"type":"Feature","properties":{"codigo":"15401","nombre":"La Victoria","departamento":"15"},"geometry":{"type":"Polygon","coordinates":[[[-74.2157,5.4978],[-74.2548,5.4978],[-74.2401,5.5387],[-74.2157,5.4978]]]}},{"type":"Feature","properties":{"codigo":"15403","nombre":"La Uvita","departamento":"15"},"geometry":{"type":"Polygon","coordinates":[[[-72.5178,6.3494],[-72.4957,6.2874],[-72.552,6.1771],[-72.6328,6.2043],[-72.6353,6.2204],[-72.5753,6.3506],[-72.5178,6.3494]]]}},{"type":"Feature","properties":{"codigo":"15407","nombre":"Villa de Leyva","departamento":"15"},"geometry":{"type":"Polygon","coordinates":[[[-73.4236,5.7073],[-73.4787,5.6776],[-73.5167,5.6007],[-73.5815,5.628],[-73.5779,5.6751],[-73.5742,5.6924],[-73.5069,5.7247],[-73.4236,5.7073]]]}},{"type":"Feature","properties":{"codigo":"15425","nombre":"Macanal","departamento":"15"},"geometry":{"type":"Polygon","coordinates":[[[-73.2229,4.9735],[-73.2988,4.9029],[-73.3759,4.9289],[-73.3649,5.0144],[-73.2486,5.069],[-73.2229,4.9735]]]}},{"type":"Feature","properties":{"codigo":"15442","nombre":"Maripí","departamento":"15"},"geometry":{"type":"Polygon","coordinates":[[[-73.9255,5.5734],[-73.9108,5.5499],[-73.9904,5.5251],[-74.0467,5.5003],[-74.0883,5.6032],[-74.0602,5.6491],[-73.9255,5.5734]]]}},{"type":"Feature","properties":{"codigo":"15455","nombre":"Miraflores","departamento":"15"},"geometry":{"type":"Polygon","coordinates":[[[-73.1482,5.2289],[-73.0894,5.1607],[-73.1127,5.1124],[-73.1531,5.0752],[-73.2486,5.069],[-73.2682,5.1557],[-73.2951,5.1979],[-73.2584,5.1855],[-73.191,5.24],[-73.1482,5.2289]]]}},{"type":"Feature","properties":{"codigo":"15464","nombre":"Mongua","departamento":"15"},"geometry":{"type":"Polygon","coordinates":[[[-72.6255,5.7767],[-72.5839,5.7705],[-72.5704,5.7098],[-72.6243,5.6292],[-72.661,5.6664],[-72.7136,5.6255],[-72.7712,5.6441],[-72.7907,5.659],[-72.825,5.7371],[-72.7969,5.7718],[-72.6255,5.7767]]]}},{"type":"Feature","properties":{"codigo":"15466","nombre":"Monguí","departamento":"15"},"geometry":{"type":"Polygon","coordinates":[[[-72.825,5.7371],[-72.7907,5.659],[-72.8703,5.6887],[-72.8715,5.742],[-72.825,5.7371]]]}},{"type":"Feature","properties":{"codigo":"15469","nombre":"Moniquirá","departamento":"15"},"geometry":{"type":"Polygon","coordinates":[[[-73.5497,5.9502],[-73.5375,5.9106],[-73.464,5.8486],[-73.4714,5.8213],[-73.5008,5.7792],[-73.5828,5.7904],[-73.6256,5.778],[-73.5999,5.8697],[-73.6354,5.9106],[-73.5938,5.9589],[-73.5497,5.9502]]]}},{"type":"Feature","properties":{"codigo":"15476","nombre":"Motavita","departamento":"15"},"geometry":{"type":"Polygon","coordinates":[[[-73.3416,5.5846],[-73.4114,5.5672],[-73.4114,5.6168],[-73.382,5.6726],[-73.3636,5.6639],[-73.3416,5.5846]]]}},{"type":"Feature","properties":{"codigo":"15480","nombre":"Muzo","departamento":"15"},"geometry":{"type":"Polygon","coordinates":[[[-74.0883,5.6032],[-74.0467,5.5003],[-74.0969,5.4706],[-74.1753,5.4619],[-74.1336,5.5078],[-74.1618,5.5982],[-74.1593,5.5958],[-74.0883,5.6032]]]}},{"type":"Feature","properties":{"codigo":"15491","nombre":"Nobsa","departamento":"15"},"geometry":{"type":"Polygon","coordinates":[[[-72.9438,5.8065],[-72.896,5.7953],[-72.8752,5.7705],[-72.8826,5.768],[-72.945,5.7457],[-72.9866,5.7866],[-72.9438,5.8065]]]}},{"type":"Feature","properties":{"codigo":"15494","nombre":"Nuevo Colón","departamento":"15"},"geometry":{"type":"Polygon","coordinates":[[[-73.4261,5.4086],[-73.4187,5.3714],[-73.4518,5.3032],[-73.4775,5.2896],[-73.4775,5.3702],[-73.4408,5.4148],[-73.4261,5.4086]]]}},{"type":"Feature","properties":{"codigo":"15500","nombre":"Oicatá","departamento":"15"},"geometry":{"type":"Polygon","coordinates":[[[-73.2314,5.6267],[-73.3073,5.5697],[-73.3269,5.5796],[-73.2669,5.6639],[-73.2314,5.6267]]]}},{"type":"Feature","properties":{"codigo":"15507","nombre":"Otanche","departamento":"15"},"geometry":{"type":"Polygon","coordinates":[[[-74.0786,5.8325],[-74.0798,5.8189],[-74.0932,5.7594],[-74.1483,5.7482],[-74.1753,5.6639],[-74.1593,5.5958],[-74.1618,5.5982],[-74.3062,5.6379],[-74.2805,5.6986],[-74.2965,5.7643],[-74.2658,5.835],[-74.1948,5.856],[-74.1802,5.9106],[-74.1067,5.8784],[-74.0786,5.8325]]]}},{"type":"Feature","properties":{"codigo":"15511","nombre":"Pachavita","departamento":"15"},"geometry":{"type":"Polygon","coordinates":[[[-73.3636,5.1372],[-73.3845,5.0851],[-73.42,5.1223],[-73.4371,5.1595],[-73.3918,5.2165],[-73.3636,5.1372]]]}},{"type":"Feature","properties":{"codigo":"15514","nombre":"Páez","departamento":"15"},"geometry":{"type":"Polygon","coordinates":[[[-72.9376,5.2041],[-72.9731,5.1458],[-72.9095,5.1037],[-72.9034,5.0677],[-72.9756,4.9748],[-73.0307,4.9822],[-73.0295,4.9921],[-73.1127,5.1124],[-73.0894,5.1607],[-73.0723,5.1694],[-73.0099,5.214],[-72.9376,5.2041]]]}},{"type":"Feature","properties":{"codigo":"15516","nombre":"Paipa","departamento":"15"},"geometry":{"type":"Polygon","coordinates":[[[-73.0503,5.7742],[-73.0601,5.6875],[-73.1029,5.659],[-73.1555,5.7271],[-73.1372,5.8213],[-73.1837,5.8498],[-73.2192,5.9131],[-73.1751,5.9949],[-73.1286,5.9329],[-73.0503,5.7742]]]}},{"type":"Feature","properties":{"codigo":"15518","nombre":"Pajarito","departamento":"15"},"geometry":{"type":"Polygon","coordinates":[[[-72.6671,5.4359],[-72.5839,5.3826],[-72.5667,5.3739],[-72.6194,5.3516],[-72.7002,5.2735],[-72.8116,5.3776],[-72.7381,5.4706],[-72.6671,5.4359]]]}},{"type":"Feature","properties":{"codigo":"15522","nombre":"Panqueba","departamento":"15"},"geometry":{"type":"Polygon","coordinates":[[[-72.4308,6.4398],[-72.4859,6.3903],[-72.497,6.4014],[-72.4859,6.4646],[-72.437,6.4944],[-72.4308,6.4398]]]}},{"type":"Feature","properties":{"codigo":"15531","nombre":"Pauna","departamento":"15"},"geometry":{"type":"Polygon","coordinates":[[[-73.9818,5.7209],[-73.9451,5.6937],[-73.8974,5.6193],[-73.9255,5.5734],[-74.0602,5.6491],[-74.0418,5.7147],[-74.0932,5.7594],[-74.0798,5.8189],[-74.0259,5.8065],[-73.9818,5.7209]]]}},{"type":"Feature","properties":{"codigo":"15533","nombre":"Paya","departamento":"15"},"geometry":{"type":"Polygon","coordinates":[[[-72.2484,5.6962],[-72.2876,5.6057],[-72.3011,5.5065],[-72.3966,5.5697],[-72.4443,5.5201],[-72.5141,5.6081],[-72.4443,5.6862],[-72.3292,5.6887],[-72.2974,5.7544],[-72.2484,5.6962]]]}},{"type":"Feature","properties":{"codigo":"15537","nombre":"Paz de Río","departamento":"15"},"geometry":{"type":"Polygon","coordinates":[[[-72.7014,6.0184],[-72.743,5.9874],[-72.7797,5.954],[-72.8177,5.9775],[-72.8128,6.0234],[-72.8103,6.0953],[-72.7944,6.1002],[-72.7161,6.0618],[-72.7014,6.0184]]]}},{"type":"Feature","properties":{"codigo":"15542","nombre":"Pesca","departamento":"15"},"geometry":{"type":"Polygon","coordinates":[[[-72.9989,5.6292],[-73.0037,5.5933],[-73.0674,5.4445],[-73.0503,5.3739],[-73.1262,5.3578],[-73.147,5.4817],[-73.1347,5.5053],[-73.0796,5.6181],[-73.076,5.628],[-72.9989,5.6292]]]}},{"type":"Feature","properties":{"codigo":"15550","nombre":"Pisba","departamento":"15"},"geometry":{"type":"Polygon","coordinates":[[[-72.2974,5.7544],[-72.3292,5.6887],[-72.4443,5.6862],[-72.5141,5.6081],[-72.5704,5.7098],[-72.5839,5.7705],[-72.5263,5.7891],[-72.4614,5.8474],[-72.3097,5.7941],[-72.2974,5.7544]]]}},{"type":"Feature","properties":{"codigo":"15572","nombre":"Puerto Boyacá","departamento":"15"},"geometry":{"type":"Polygon","coordinates":[[[-74.2658,5.835],[-74.2965,5.7643],[-74.3344,5.8275],[-74.4323,5.7581],[-74.4862,5.7705],[-74.5303,5.7904],[-74.5927,5.747],[-74.6612,5.7519],[-74.6649,5.768],[-74.6404,5.8598],[-74.5854,5.9255],[-74.567,6.0581],[-74.6123,6.1262],[-74.5339,6.2688],[-74.5266,6.2737],[-74.4519,6.099],[-74.3785,6.0395],[-74.2867,6.0829],[-74.2218,5.9676],[-74.2658,5.835]]]}},{"type":"Feature","properties":{"codigo":"15580","nombre":"Quípama","departamento":"15"},"geometry":{"type":"Polygon","coordinates":[[[-74.1618,5.5982],[-74.1336,5.5078],[-74.1753,5.4619],[-74.1777,5.4594],[-74.2157,5.4978],[-74.2401,5.5387],[-74.2916,5.5697],[-74.3062,5.6379],[-74.1618,5.5982]]]}},{"type":"Feature","properties":{"codigo":"15599","nombre":"Ramiriquí","departamento":"15"},"geometry":{"type":"Polygon","coordinates":[[[-73.3147,5.4433],[-73.2853,5.3491],[-73.2731,5.2995],[-73.2829,5.2066],[-73.3294,5.2611],[-73.3367,5.3144],[-73.3661,5.3652],[-73.3526,5.4321],[-73.3343,5.4408],[-73.3147,5.4433]]]}},{"type":"Feature","properties":{"codigo":"15600","nombre":"Ráquira","departamento":"15"},"geometry":{"type":"Polygon","coordinates":[[[-73.5803,5.5896],[-73.5497,5.5214],[-73.6183,5.4049],[-73.7199,5.4594],[-73.7431,5.4706],[-73.6929,5.5251],[-73.6244,5.5697],[-73.5803,5.5896]]]}},{"type":"Feature","properties":{"codigo":"15621","nombre":"Rondón","departamento":"15"},"geometry":{"type":"Polygon","coordinates":[[[-73.1262,5.3578],[-73.2339,5.2846],[-73.2731,5.2995],[-73.2853,5.3491],[-73.2216,5.4074],[-73.2155,5.4408],[-73.147,5.4817],[-73.1262,5.3578]]]}},{"type":"Feature","properties":{"codigo":"15632","nombre":"Saboyá","departamento":"15"},"geometry":{"type":"Polygon","coordinates":[[[-73.6513,5.7123],[-73.6538,5.7023],[-73.6807,5.6367],[-73.6856,5.6292],[-73.7799,5.6342],[-73.8864,5.69],[-73.8802,5.7073],[-73.7946,5.7296],[-73.7627,5.773],[-73.7113,5.7767],[-73.6513,5.7123]]]}},{"type":"Feature","properties":{"codigo":"15638","nombre":"Sáchica","departamento":"15"},"geometry":{"type":"Polygon","coordinates":[[[-73.5167,5.6007],[-73.4983,5.5598],[-73.5497,5.5214],[-73.5803,5.5896],[-73.5815,5.628],[-73.5167,5.6007]]]}},{"type":"Feature","properties":{"codigo":"15646","nombre":"Samacá","departamento":"15"},"geometry":{"type":"Polygon","coordinates":[[[-73.491,5.5487],[-73.4322,5.4854],[-73.4469,5.4693],[-73.5926,5.3987],[-73.6183,5.4049],[-73.5497,5.5214],[-73.4983,5.5598],[-73.491,5.5487]]]}},{"type":"Feature","properties":{"codigo":"15660","nombre":"San Eduardo","departamento":"15"},"geometry":{"type":"Polygon","coordinates":[[[-73.0099,5.214],[-73.0723,5.1694],[-73.1017,5.2103],[-73.0637,5.3008],[-73.0417,5.3119],[-73.0099,5.214]]]}},{"type":"Feature","properties":{"codigo":"15664","nombre":"San José de Pare","departamento":"15"},"geometry":{"type":"Polygon","coordinates":[[[-73.5314,6.0494],[-73.4861,6.0011],[-73.4959,5.9874],[-73.5497,5.9502],[-73.5938,5.9589],[-73.5877,5.9973],[-73.5375,6.042],[-73.5314,6.0494]]]}},{"type":"Feature","properties":{"codigo":"15667","nombre":"San Luis de Gaceno","departamento":"15"},"geometry":{"type":"Polygon","coordinates":[[[-73.0295,4.9921],[-73.0307,4.9822],[-73.0417,4.8793],[-73.0772,4.8124],[-73.0527,4.7368],[-73.1029,4.6612],[-73.2082,4.681],[-73.1702,4.7318],[-73.2216,4.8558],[-73.1751,4.8967],[-73.0613,4.9884],[-73.0295,4.9921]]]}},{"type":"Feature","properties":{"codigo":"15673","nombre":"San Mateo","departamento":"15"},"geometry":{"type":"Polygon","coordinates":[[[-72.497,6.4014],[-72.4859,6.3903],[-72.5178,6.3494],[-72.5753,6.3506],[-72.623,6.4411],[-72.5484,6.4869],[-72.5484,6.4262],[-72.497,6.4014]]]}},{"type":"Feature","properties":{"codigo":"15676","nombre":"San Miguel de Sema","departamento":"15"},"geometry":{"type":"Polygon","coordinates":[[[-73.7162,5.5908],[-73.6929,5.5251],[-73.7431,5.4706],[-73.7872,5.5102],[-73.7897,5.5524],[-73.7162,5.5908]]]}},{"type":"Feature","properties":{"codigo":"15681","nombre":"San Pablo de Borbur","departamento":"15"},"geometry":{"type":"Polygon","coordinates":[[[-74.0602,5.6491],[-74.0883,5.6032],[-74.1593,5.5958],[-74.1753,5.6639],[-74.1483,5.7482],[-74.0932,5.7594],[-74.0418,5.7147],[-74.0602,5.6491]]]}},{"type":"Feature","properties":{"codigo":"15686","nombre":"Santana","departamento":"15"},"geometry":{"type":"Polygon","coordinates":[[[-73.4542,6.0791],[-73.4861,6.0011],[-73.5314,6.0494],[-73.4971,6.1077],[-73.4542,6.0791]]]}},{"type":"Feature","properties":{"codigo":"15690","nombre":"Santa María","departamento":"15"},"geometry":{"type":"Polygon","coordinates":[[[-73.1751,4.8967],[-73.2216,4.8558],[-73.1702,4.7318],[-73.2082,4.681],[-73.2204,4.6761],[-73.2229,4.7331],[-73.3061,4.7318],[-73.3245,4.7802],[-73.3404,4.7913],[-73.2988,4.9029],[-73.2229,4.9735],[-73.1751,4.8967]]]}},{"type":"Feature","properties":{"codigo":"15693","nombre":"Santa Rosa de Viterbo","departamento":"15"},"geometry":{"type":"Polygon","coordinates":[[[-73.0111,5.9626],[-72.9279,5.9242],[-72.9756,5.8585],[-72.9438,5.8065],[-72.9866,5.7866],[-72.9927,5.8052],[-73.049,5.9775],[-73.0307,6.0209],[-73.0111,5.9626]]]}},{"type":"Feature","properties":{"codigo":"15696","nombre":"Santa Sofía","departamento":"15"},"geometry":{"type":"Polygon","coordinates":[[[-73.5828,5.7904],[-73.5742,5.6924],[-73.5779,5.6751],[-73.6538,5.7023],[-73.6513,5.7123],[-73.6256,5.778],[-73.5828,5.7904]]]}},{"type":"Feature","properties":{"codigo":"15720","nombre":"Sativanorte","departamento":"15"},"geometry":{"type":"Polygon","coordinates":[[[-72.6353,6.1808],[-72.6561,6.1163],[-72.6549,6.0829],[-72.7944,6.1002],[-72.8103,6.0953],[-72.8287,6.1523],[-72.825,6.1585],[-72.7124,6.1585],[-72.6353,6.1808]]]}},{"type":"Feature","properties":{"codigo":"15723","nombre":"Sativasur","departamento":"15"},"geometry":{"type":"Polygon","coordinates":[[[-72.6549,6.0829],[-72.6573,6.063],[-72.7014,6.0184],[-72.7161,6.0618],[-72.7944,6.1002],[-72.6549,6.0829]]]}},{"type":"Feature","properties":{"codigo":"15740","nombre":"Siachoque","departamento":"15"},"geometry":{"type":"Polygon","coordinates":[[[-73.1347,5.5053],[-73.147,5.4817],[-73.2155,5.4408],[-73.2865,5.4854],[-73.2853,5.5239],[-73.2278,5.5536],[-73.1347,5.5053]]]}},{"type":"Feature","properties":{"codigo":"15753","nombre":"Soatá","departamento":"15"},"geometry":{"type":"Polygon","coordinates":[[[-72.6549,6.3779],[-72.6414,6.2787],[-72.7455,6.275],[-72.7259,6.3717],[-72.6549,6.3779]]]}},{"type":"Feature","properties":{"codigo":"15755","nombre":"Socotá","departamento":"15"},"geometry":{"type":"Polygon","coordinates":[[[-72.5422,6.0692],[-72.5276,6.0097],[-72.4504,5.9577],[-72.4162,5.9044],[-72.4614,5.8474],[-72.5263,5.7891],[-72.5839,5.7705],[-72.6255,5.7767],[-72.6316,5.8288],[-72.6512,5.9069],[-72.6328,5.9812],[-72.6573,6.063],[-72.6549,6.0829],[-72.6561,6.1163],[-72.5655,6.1188],[-72.5422,6.0692]]]}},{"type":"Feature","properties":{"codigo":"15757","nombre":"Socha","departamento":"15"},"geometry":{"type":"Polygon","coordinates":[[[-72.6512,5.9069],[-72.6953,5.8709],[-72.743,5.9874],[-72.7014,6.0184],[-72.6573,6.063],[-72.6328,5.9812],[-72.6512,5.9069]]]}},{"type":"Feature","properties":{"codigo":"15759","nombre":"Sogamoso","departamento":"15"},"geometry":{"type":"Polygon","coordinates":[[[-72.8715,5.742],[-72.8703,5.6887],[-72.7907,5.659],[-72.7712,5.6441],[-72.8116,5.5846],[-72.896,5.6131],[-72.923,5.6205],[-72.9634,5.6491],[-72.9474,5.7147],[-72.945,5.7457],[-72.8826,5.768],[-72.8715,5.742]]]}},{"type":"Feature","properties":{"codigo":"15761","nombre":"Somondoco","departamento":"15"},"geometry":{"type":"Polygon","coordinates":[[[-73.3771,5.0157],[-73.4395,4.9078],[-73.4665,4.9835],[-73.4469,4.9946],[-73.3881,5.0157],[-73.3771,5.0157]]]}},{"type":"Feature","properties":{"codigo":"15762","nombre":"Sora","departamento":"15"},"geometry":{"type":"Polygon","coordinates":[[[-73.4114,5.5672],[-73.4224,5.561],[-73.491,5.5487],[-73.4983,5.5598],[-73.4114,5.6168],[-73.4114,5.5672]]]}},{"type":"Feature","properties":{"codigo":"15763","nombre":"Sotaquirá","departamento":"15"},"geometry":{"type":"Polygon","coordinates":[[[-73.1837,5.8498],[-73.1372,5.8213],[-73.1555,5.7271],[-73.2645,5.7036],[-73.3012,5.7098],[-73.3575,5.8065],[-73.3453,5.8424],[-73.1837,5.8498]]]}},{"type":"Feature","properties":{"codigo":"15764","nombre":"Soracá","departamento":"15"},"geometry":{"type":"Polygon","coordinates":[[[-73.3086,5.5437],[-73.2853,5.5239],[-73.2865,5.4854],[-73.3147,5.4495],[-73.3147,5.4433],[-73.3343,5.4408],[-73.3612,5.4743],[-73.3086,5.5437]]]}},{"type":"Feature","properties":{"codigo":"15774","nombre":"Susacón","departamento":"15"},"geometry":{"type":"Polygon","coordinates":[[[-72.6414,6.2787],[-72.6353,6.2204],[-72.6328,6.2043],[-72.6353,6.1808],[-72.7124,6.1585],[-72.825,6.1585],[-72.7455,6.275],[-72.6414,6.2787]]]}},{"type":"Feature","properties":{"codigo":"15776","nombre":"Sutamarchán","departamento":"15"},"geometry":{"type":"Polygon","coordinates":[[[-73.5779,5.6751],[-73.5815,5.628],[-73.5803,5.5896],[-73.6244,5.5697],[-73.6807,5.6367],[-73.6538,5.7023],[-73.5779,5.6751]]]}},{"type":"Feature","properties":{"codigo":"15778","nombre":"Sutatenza","departamento":"15"},"geometry":{"type":"Polygon","coordinates":[[[-73.3943,5.0479],[-73.3881,5.0157],[-73.4469,4.9946],[-73.4738,5.0516],[-73.3943,5.0479]]]}},{"type":"Feature","properties":{"codigo":"15790","nombre":"Tasco","departamento":"15"},"geometry":{"type":"Polygon","coordinates":[[[-72.6512,5.9069],[-72.6316,5.8288],[-72.7491,5.8176],[-72.7981,5.8536],[-72.8262,5.8784],[-72.7797,5.954],[-72.743,5.9874],[-72.6953,5.8709],[-72.6512,5.9069]]]}},{"type":"Feature","properties":{"codigo":"15798","nombre":"Tenza","departamento":"15"},"geometry":{"type":"Polygon","coordinates":[[[-73.3845,5.0851],[-73.3943,5.0479],[-73.4738,5.0516],[-73.4799,5.0615],[-73.42,5.1223],[-73.3845,5.0851]]]}},{"type":"Feature","properties":{"codigo":"15804","nombre":"Tibaná","departamento":"15"},"geometry":{"type":"Polygon","coordinates":[[[-73.3367,5.3144],[-73.3294,5.2611],[-73.4016,5.2425],[-73.4518,5.3032],[-73.4187,5.3714],[-73.3367,5.3144]]]}},{"type":"Feature","properties":{"codigo":"15806","nombre":"Tibasosa","departamento":"15"},"geometry":{"type":"Polygon","coordinates":[[[-72.9927,5.8052],[-72.9866,5.7866],[-72.945,5.7457],[-72.9474,5.7147],[-73.0246,5.7247],[-73.0601,5.6875],[-73.0503,5.7742],[-72.9927,5.8052]]]}},{"type":"Feature","properties":{"codigo":"15808","nombre":"Tinjacá","departamento":"15"},"geometry":{"type":"Polygon","coordinates":[[[-73.6244,5.5697],[-73.6929,5.5251],[-73.7162,5.5908],[-73.6856,5.6292],[-73.6807,5.6367],[-73.6244,5.5697]]]}},{"type":"Feature","properties":{"codigo":"15810","nombre":"Tipacoque","departamento":"15"},"geometry":{"type":"Polygon","coordinates":[[[-72.6549,6.3779],[-72.7259,6.3717],[-72.7381,6.4398],[-72.6793,6.4832],[-72.661,6.4436],[-72.6549,6.3779]]]}},{"type":"Feature","properties":{"codigo":"15814","nombre":"Toca","departamento":"15"},"geometry":{"type":"Polygon","coordinates":[[[-73.0796,5.6181],[-73.1347,5.5053],[-73.2278,5.5536],[-73.2131,5.6267],[-73.0796,5.6181]]]}},{"type":"Feature","properties":{"codigo":"15816","nombre":"Togüí","departamento":"15"},"geometry":{"type":"Polygon","coordinates":[[[-73.4334,5.8982],[-73.464,5.8486],[-73.5375,5.9106],[-73.5497,5.9502],[-73.4959,5.9874],[-73.4334,5.8982]]]}},{"type":"Feature","properties":{"codigo":"15820","nombre":"Tópaga","departamento":"15"},"geometry":{"type":"Polygon","coordinates":[[[-72.7969,5.7718],[-72.825,5.7371],[-72.8715,5.742],[-72.8826,5.768],[-72.8752,5.7705],[-72.8324,5.7978],[-72.7969,5.7718]]]}},{"type":"Feature","properties":{"codigo":"15822","nombre":"Tota","departamento":"15"},"geometry":{"type":"Polygon","coordinates":[[[-73.0037,5.5933],[-72.9254,5.5672],[-73.016,5.385],[-73.0429,5.3603],[-73.0503,5.3739],[-73.0674,5.4445],[-73.0037,5.5933]]]}},{"type":"Feature","properties":{"codigo":"15832","nombre":"Tununguá","departamento":"15"},"geometry":{"type":"Polygon","coordinates":[[[-73.8998,5.7371],[-73.9451,5.6937],[-73.9818,5.7209],[-73.9623,5.7395],[-73.8998,5.7371]]]}},{"type":"Feature","properties":{"codigo":"15835","nombre":"Turmequé","departamento":"15"},"geometry":{"type":"Polygon","coordinates":[[[-73.4775,5.2896],[-73.5142,5.2326],[-73.5485,5.2995],[-73.4775,5.3702],[-73.4775,5.2896]]]}},{"type":"Feature","properties":{"codigo":"15837","nombre":"Tuta","departamento":"15"},"geometry":{"type":"Polygon","coordinates":[[[-73.1555,5.7271],[-73.1029,5.659],[-73.076,5.628],[-73.0796,5.6181],[-73.2131,5.6267],[-73.2314,5.6267],[-73.2669,5.6639],[-73.2645,5.7036],[-73.1555,5.7271]]]}},{"type":"Feature","properties":{"codigo":"15839","nombre":"Tutazá","departamento":"15"},"geometry":{"type":"Polygon","coordinates":[[[-72.8103,6.0953],[-72.8128,6.0234],[-72.8617,6.0135],[-72.923,6.0977],[-72.8679,6.1448],[-72.8287,6.1523],[-72.8103,6.0953]]]}},{"type":"Feature","properties":{"codigo":"15842","nombre":"Úmbita","departamento":"15"},"geometry":{"type":"Polygon","coordinates":[[[-73.4016,5.2425],[-73.3918,5.2165],[-73.4371,5.1595],[-73.4775,5.1483],[-73.5142,5.2326],[-73.4775,5.2896],[-73.4518,5.3032],[-73.4016,5.2425]]]}},{"type":"Feature","properties":{"codigo":"15861","nombre":"Ventaquemada","departamento":"15"},"geometry":{"type":"Polygon","coordinates":[[[-73.4163,5.4483],[-73.4408,5.4148],[-73.4775,5.3702],[-73.5485,5.2995],[-73.5962,5.3652],[-73.5987,5.3788],[-73.5926,5.3987],[-73.4469,5.4693],[-73.4163,5.4483]]]}},{"type":"Feature","properties":{"codigo":"15879","nombre":"Viracachá","departamento":"15"},"geometry":{"type":"Polygon","coordinates":[[[-73.2155,5.4408],[-73.2216,5.4074],[-73.3147,5.4495],[-73.2865,5.4854],[-73.2155,5.4408]]]}},{"type":"Feature","properties":{"codigo":"15897","nombre":"Zetaquira","departamento":"15"},"geometry":{"type":"Polygon","coordinates":[[[-73.0503,5.3739],[-73.0429,5.3603],[-73.0417,5.3119],[-73.0637,5.3008],[-73.1482,5.2289],[-73.191,5.24],[-73.2584,5.1855],[-73.2951,5.1979],[-73.2829,5.2066],[-73.2731,5.2995],[-73.2339,5.2846],[-73.1262,5.3578],[-73.0503,5.3739]]]}}]}